#cP2021  8 20  0  0  0.00000000      96 ORBIT IGb14 HLM  IGS
## 2171 432000.00000000   900.00000000 59446 0.0000000000000
+   31   G01G02G03G04G05G06G07G08G09G10G12G13G14G15G16G17G18
+        G19G20G21G22G23G24G25G26G27G28G29G30G31G32  0  0  0
+          0  0  0  0  0  0  0  0  0  0  0  0  0  0  0  0  0
+          0  0  0  0  0  0  0  0  0  0  0  0  0  0  0  0  0
+          0  0  0  0  0  0  0  0  0  0  0  0  0  0  0  0  0
++         1  1  2  2  1  1  1  3  2  1  2  1  2  2  2  2  2
++         2  1  2  2  2  1  1  1  2  2  2  1  1  2  0  0  0
++         0  0  0  0  0  0  0  0  0  0  0  0  0  0  0  0  0
++         0  0  0  0  0  0  0  0  0  0  0  0  0  0  0  0  0
++         0  0  0  0  0  0  0  0  0  0  0  0  0  0  0  0  0
%c G  cc GPS ccc cccc cccc cccc cccc ccccc ccccc ccccc ccccc
%c cc cc ccc ccc cccc cccc cccc cccc ccccc ccccc ccccc ccccc
%f  1.2500000  1.025000000  0.00000000000  0.000000000000000
%f  0.0000000  0.000000000  0.00000000000  0.000000000000000
%i    0    0    0    0      0      0      0      0         0
%i    0    0    0    0      0      0      0      0         0
/* FINAL ORBIT COMBINATION FROM WEIGHTED AVERAGE OF:        
/* cod emr esa gfz grg jpl mit ngs sio                      
/* REFERENCED TO IGS TIME (IGST) AND TO WEIGHTED MEAN POLE: 
/* PCV:IGS14_2163 OL/AL:FES2004  NONE     Y  ORB:CMB CLK:CMB
*  2021  8 20 12  0  0.00000000
PG01  15327.382659    950.160431  21444.783101    592.099061  5  4     63       
PG02 -14012.168259 -21442.609602  -6225.953603   -627.461586     4  3  73       
PG03  20324.257998  -7660.709879  15114.955809   -260.678028  5  2  2  51       
PG04  25240.759943   -257.198131  -8364.432588   -204.039333  8  4  5  79       
PG05 -15729.745431  -4209.929948 -21173.853564    -51.718117  3  3  4  97       
PG06  -5876.972460 -25542.311744   4158.570500     59.257052  4  4  2  87       
PG07   9381.571381 -15073.545639 -19229.973461    228.837048  3  2     70       
PG08  25836.611208   6320.883499  -2653.490535 999999.999999
PG09  18149.510284  -9193.584927 -17152.282851   -359.268705  6  5  4  64       
PG10  -9187.307711  22245.934151  11030.185782   -186.273268  3  3     71       
PG12 -20694.074460   6094.639989  15155.175018    -85.549123  4  5  4  75       
PG13 -21379.412928 -13405.005765  -8662.383882    173.907804  6  4  4  66       
PG14   9875.749222 -21951.725547  11168.821930     19.617492  6  3     84       
PG15 -26358.807586  -3899.631577  -2719.970677   -127.053325  8  4  4  78       
PG16  11139.136280  10190.127495 -22107.519266   -376.792135  6  5  5  77       
PG17   4556.178471 -14261.524054  22369.104497    492.198158  3  3  3  92       
PG18  -7771.578263  17344.430122 -18530.132235    331.016373  4  4  6  93       
PG19  -5726.297888 -15919.450152  20239.367967     42.066463  5  3  2  99       
PG20  -7739.086439 -15459.365244 -20256.233134    519.558532  4     5  55       
PG21  17949.428740   8648.472127  18508.412202    138.256100  6  4  2  79       
PG22  18078.151163   -698.805366  19559.926270   -533.670004  5  4     34       
PG23 -16886.200405  20453.723568   -121.622562     68.352289  6  5  4  71       
PG24 -17606.916473  -5341.980722  19032.278711    213.604488  2  2  3  66       
PG25 -19924.403174  15841.178071   6812.390537    194.325000  5  3  4  82       
PG26   1952.690546  19094.252382 -18298.362636    124.788728  3     4  83       
PG27  20530.842607  12276.387239 -12109.084173   -181.025552  8  4  8  84       
PG28   4917.236902 -20548.583520  16759.941478    516.475104  6  4  5 101       
PG29 -20361.613496   5663.901281 -16171.552566   -399.082191  5  3  1  71       
PG30   1138.000351 -23822.108701 -11366.874436   -464.205710  6  4  3  78       
PG31   6729.030356  25353.633586   1846.720993   -135.284657  3  4  2  53       
PG32   -170.741609  15487.902788  21703.499335      6.329727  4  5  3  67       
*  2021  8 20 12 15  0.00000000
PG01  16143.484584   3264.116764  20642.852877    592.088948  4  4     67       
PG02 -14049.815948 -22119.476742  -3432.292264   -627.463631     4  4  68       
PG03  19279.922428  -6113.678092  17059.903844   -260.689785  5  3  2  50       
PG04  25983.371581    127.027761  -5664.481712   -204.039571  9  4  4  98       
PG05 -14312.507856  -6167.885819 -21682.545792    -51.719249  3  4  4 104       
PG06  -5479.367172 -25020.092657   6970.265742     59.262862  4  2  2  92       
PG07  10334.405409 -12920.175881 -20304.402506    228.844122  3  2  1  75       
PG08  25353.833540   6466.278850  -5453.866051 999999.999999
PG09  19951.822278  -8760.291039 -15268.824359   -359.269530  6  5  3  63       
PG10 -10053.387422  22968.284914   8441.774574   -186.280216  3  3  1  48       
PG12 -19522.180447   4603.439286  17093.273751    -85.553724  4  5  3  79       
PG13 -20256.288004 -13274.284110 -11213.656496    173.913448  6  4  4  91       
PG14  10809.988974 -22641.724489   8635.600378     19.609793  6  3     81       
PG15 -25924.286651  -4190.206568  -5441.781829   -127.051084  8  4  4  82       
PG16   9401.642567  11943.096472 -21995.968905   -376.797683  6  5  5  86       
PG17   6939.921150 -13718.181183  22089.790112    492.203376  4  3  4  85       
PG18  -8624.036989  15316.541593 -19898.406773    331.013165  4  4  6  91       
PG19  -3375.264567 -15351.885203  21159.223111     42.070740  5  3  2 104       
PG20  -6501.227828 -17340.961270 -19159.611415    519.557978  4     5  57       
PG21  18652.762571  10398.139691  16813.609572    138.258369  6  5  2  53       
PG22  16936.253091   1270.612854  20555.377412   -533.661717  5  5     51       
PG23 -16975.661352  20164.130969  -2983.111223     68.347710  6  5  4  77       
PG24 -18379.808348  -7344.784213  17636.940130    213.614085  2  3  3  58       
PG25 -19521.080842  14919.201407   9470.332598    194.330811  5  3  4  74       
PG26    608.477670  20595.357926 -16662.586339    124.792638  3     3  74       
PG27  19051.639314  12188.141809 -14398.848408   -181.030577  8  3  8  80       
PG28   6203.920010 -21674.370541  14742.168270    516.468985  7  4  5  97       
PG29 -22001.717031   5142.667351 -14058.482920   -399.087677  5  3     53       
PG30   1891.963664 -22546.865681 -13647.972920   -464.209398  6  4  3  67       
PG31   6311.007793  25089.237019   4686.020747   -135.286621  3  3  2  65       
PG32  -2607.753464  15122.337258  21790.119265      6.327172  3  5  2  66       
*  2021  8 20 12 30  0.00000000
PG01  17040.038347   5422.379300  19479.560568    592.078869  5  5     63       
PG02 -13972.088324 -22507.256705   -578.603796   -627.465805  2  4  3  81       
PG03  18200.371882  -4346.826188  18707.939524   -260.701568  5  4  2  55       
PG04  26436.940220    431.001982  -2867.402797   -204.039885 10  4  3  58       
PG05 -12978.317673  -8228.626203 -21824.071047    -51.720326  3  4  5 100       
PG06  -4924.893672 -24236.167238   9661.788537     59.268777  4  1  3  88       
PG07  11431.866777 -10725.022201 -21014.543803    228.851140  3  2  1  95       
PG08  24570.593549   6613.342591  -8162.116474 999999.999999
PG09  21547.683713  -8437.885108 -13123.994725   -359.270353  6  4  3  44       
PG10 -10705.717978  23488.727026   5706.354538   -186.287166  4  4  2  79       
PG12 -18300.332843   2893.532521  18730.246724    -85.558779  5  5  3  68       
PG13 -18858.894303 -13140.864587 -13574.704704    173.916606  6  4  4  73       
PG14  11525.408259 -23146.253952   5953.322146     19.602047  6  3  1  91       
PG15 -25207.058761  -4504.377876  -8072.635494   -127.048556  8  3  3  73       
PG16   7780.880748  13766.422938 -21513.372668   -376.803317  5  5  4  73       
PG17   9300.568613 -13318.498523  21445.101623    492.208501  5  4  4  92       
PG18  -9636.398037  13212.928387 -20923.901988    331.009981  5  3  5  85       
PG19   -912.030583 -14896.203512  21706.607546     42.075219  5  3  2  95       
PG20  -5423.201319 -19153.518672 -17736.494232    519.558116  4     5  68       
PG21  19352.280290  11933.115099  14848.768007    138.260249  6  5  2  72       
PG22  15846.275903   3370.565643  21201.243119   -533.653187  5  5     49       
PG23 -16899.744017  19613.373169  -5793.066079     68.343174  7  5  4  82       
PG24 -19163.589223  -9149.661467  15936.384360    213.623712  2  3  4  71       
PG25 -18994.855656  13736.497741  11960.991269    194.336618  4  2  3  83       
PG26   -553.182572  21992.427036 -14738.084788    124.796606  3     3  67       
PG27  17327.508842  12158.684864 -16447.688781   -181.035597  7  2  8  70       
PG28   7274.027203 -22690.251098  12481.183074    516.462771  7  4  5  94       
PG29 -23419.193563   4756.413039 -11704.862685   -399.092812  5  3  2  71       
PG30   2800.963485 -21083.371379 -15690.546369   -464.213041  6  4  3  61       
PG31   5755.276931  24551.070886   7442.176001   -135.288624  2  3  3  86       
PG32  -5051.145640  14884.724067  21505.630503      6.324602  3  4  2  77       
EOF
